OBJECT_NAME,OBJECT_ID,EPOCH,MEAN_MOTION,ECCENTRICITY,INCLINATION,RA_OF_ASC_NODE,ARG_OF_PERICENTER,MEAN_ANOMALY,EPHEMERIS_TYPE,CLASSIFICATION_TYPE,NORAD_CAT_ID,ELEMENT_SET_NO,REV_AT_EPOCH,BSTAR,MEAN_MOTION_DOT,MEAN_MOTION_DDOT
STARLINK-6320,2023-099J,2023-11-12T02:25:38.579808,15.01730552,.0001364,43.0016,179.3644,265.5211,94.5475,0,U,57336,999,1847,.2175E-3,.2675E-4,0
STARLINK-6322,2023-099K,2023-11-12T08:30:18.076032,15.02542092,.0001267,43.0024,178.6924,273.9794,86.0903,0,U,57337,999,1850,-.72163E-5,-.301E-5,0
STARLINK-6374,2023-099L,2023-11-12T08:25:30.804672,15.02528729,.0000988,43.0016,178.6669,286.9299,73.1435,0,U,57338,999,1850,.25605E-3,.3256E-4,0
STARLINK-6332,2023-099M,2023-11-12T18:06:16.100928,15.02543420,.0001207,43.0005,176.5349,266.8290,93.2414,0,U,57339,999,1930,.3519E-3,.4554E-4,0
STARLINK-6321,2023-099N,2023-11-12T08:07:55.537536,15.02538607,.0001258,43.0016,178.5793,267.4911,92.5787,0,U,57340,999,1850,.17041E-4,.27E-6,0
STARLINK-6377,2023-099P,2023-11-12T08:15:55.436832,15.02532657,.000152,43.0012,178.6205,259.9151,100.1520,0,U,57341,999,1850,.43171E-3,.5632E-4,0
STARLINK-6375,2023-099Q,2023-11-12T07:43:57.117504,15.02536859,.0001395,43.0011,178.4522,272.6382,87.4301,0,U,57342,999,1850,.39388E-3,.5121E-4,0
STARLINK-6379,2023-099R,2023-11-12T08:11:07.224576,15.02538537,.0001299,43.0015,178.5943,271.6016,88.4678,0,U,57343,999,1850,.16708E-3,.2054E-4,0
STARLINK-6380,2023-099S,2023-11-12T17:32:42.193824,15.02539189,.0001358,43.0008,176.3598,269.6438,90.4248,0,U,57344,999,1930,.11955E-3,.1412E-4,0
STARLINK-6373,2023-099T,2023-11-12T14:26:02.567904,15.02540690,.0001292,43.0015,177.1076,269.5662,90.5032,0,U,57345,999,1854,.13202E-3,.158E-4,0
STARLINK-6359,2023-099U,2023-11-12T07:31:09.905376,15.02539504,.0001171,43.0010,178.3854,273.4329,86.6379,0,U,57346,999,1850,-.31034E-4,-.623E-5,0
STARLINK-6378,2023-099V,2023-11-12T07:51:56.589984,15.02539665,.0001309,43.0010,178.4938,268.3736,91.6956,0,U,57347,999,1850,.55892E-4,.552E-5,0
STARLINK-6372,2023-099W,2023-11-12T07:26:22.233984,15.02535977,.0001384,43.0009,178.3599,271.9114,88.1570,0,U,57348,999,1850,.1956E-3,.244E-4,0
STARLINK-6376,2023-099X,2023-11-12T18:39:39.717792,15.02541672,.0001328,43.0013,175.8482,262.6160,97.4531,0,U,57349,999,1931,.11946E-3,.1411E-4,0
STARLINK-6362,2023-099Y,2023-11-12T07:38:05.620704,15.02540136,.0001254,43.0021,166.2546,267.1701,92.8998,0,U,57350,999,1864,-.11387E-3,-.1742E-4,0
STARLINK-6331,2023-099Z,2023-11-12T07:24:46.611648,15.02533289,.0001214,43.0020,178.3528,273.8199,86.2504,0,U,57351,999,1850,-.33016E-4,-.649E-5,0
STARLINK-6297,2023-099AA,2023-11-12T07:30:06.350400,15.02539844,.0000818,43.0022,166.2106,276.1824,83.8925,0,U,57352,999,1864,-.11743E-3,-.179E-4,0
STARLINK-6324,2023-099AB,2023-11-12T07:21:34.384608,15.02542036,.0001357,43.0015,178.3334,272.7958,87.2729,0,U,57353,999,1850,.16154E-4,.15E-6,0
STARLINK-6293,2023-099AC,2023-11-12T18:25:48.866016,15.02525554,.0001142,43.0023,163.6067,271.2420,88.8292,0,U,57354,999,1945,.24678E-3,.3131E-4,0
STARLINK-6276,2023-099AD,2023-11-12T07:33:17.809344,15.02537956,.0001208,43.0017,166.2289,273.1504,86.9200,0,U,57355,999,1864,.14057E-4,-.14E-6,0
STARLINK-6355,2023-099AE,2023-11-12T22:00:00.999936,15.02542097,.0001238,43.0011,162.7858,277.6652,173.9729,0,U,57356,999,1937,-.15593E-2,-.21207E-3,0
STARLINK-5600,2023-099AF,2023-11-12T20:11:07.560672,15.02539323,.0001063,43.0022,163.2956,266.0461,94.0260,0,U,57357,999,1935,.8147E-4,.897E-5,0
STARLINK-6299,2023-099AG,2023-11-12T18:16:13.338336,15.02540813,.0001322,43.0010,163.5555,270.2585,89.8106,0,U,57358,999,1945,.23859E-3,.3021E-4,0
STARLINK-6347,2023-099AH,2023-11-12T07:23:42.550368,15.02541953,.0001063,43.0015,166.1773,268.4716,91.6005,0,U,57359,999,1864,-.95771E-4,-.1497E-4,0
STARLINK-6348,2023-099AJ,2023-11-12T18:06:38.403360,15.02534759,.000127,43.0021,163.5056,273.2200,86.8497,0,U,57360,999,1945,-.42336E-5,-.261E-5,0
STARLINK-6340,2023-099AK,2023-11-12T02:22:08.295168,15.02543515,.0000986,43.0016,167.1851,268.1010,91.9719,0,U,57361,999,1861,-.28145E-4,-.584E-5,0
STARLINK-6343,2023-099AL,2023-11-12T00:28:49.873152,15.02537576,.0001274,43.0020,167.4530,275.0106,85.0591,0,U,57362,999,1860,.26E-4,.148E-5,0
STARLINK-6356,2023-099AM,2023-11-12T13:24:14.700672,15.02540164,.0001065,43.0011,164.6139,270.9658,89.1063,0,U,57363,999,1868,.18773E-3,.2333E-4,0
STARLINK-6338,2023-099AN,2023-11-12T06:50:08.607840,15.02540920,.0001332,43.0026,165.9992,268.8447,91.2242,0,U,57364,999,1864,-.87054E-4,-.138E-4,0
STARLINK-5007,2023-099AP,2023-11-12T06:37:21.453600,15.02537238,.0001554,43.0009,165.9286,267.1967,92.8697,0,U,57365,999,1864,.13785E-3,.1659E-4,0
