STARLINK-6320           
1 57336U 23099J   23316.10114097  .00002675  00000+0  21750-3 0  9992
2 57336  43.0016 179.3644 0001364 265.5211  94.5475 15.01730552 18473
STARLINK-6322           
1 57337U 23099K   23316.35437588 -.00000301  00000+0 -72163-5 0  9995
2 57337  43.0024 178.6924 0001267 273.9794  86.0903 15.02542092 18504
STARLINK-6374           
1 57338U 23099L   23316.35105098  .00003256  00000+0  25605-3 0  9991
2 57338  43.0016 178.6669 0000988 286.9299  73.1435 15.02528729 18503
STARLINK-6332           
1 57339U 23099M   23316.75435302  .00004554  00000+0  35190-3 0  9992
2 57339  43.0005 176.5349 0001207 266.8290  93.2414 15.02543420 19301
STARLINK-6321           
1 57340U 23099N   23316.33883724  .00000027  00000+0  17041-4 0  9990
2 57340  43.0016 178.5793 0001258 267.4911  92.5787 15.02538607 18500
STARLINK-6377           
1 57341U 23099P   23316.34439163  .00005632  00000+0  43171-3 0  9995
2 57341  43.0012 178.6205 0001520 259.9151 100.1520 15.02532657 18500
STARLINK-6375           
1 57342U 23099Q   23316.32218886  .00005121  00000+0  39388-3 0  9999
2 57342  43.0011 178.4522 0001395 272.6382  87.4301 15.02536859 18500
STARLINK-6379           
1 57343U 23099R   23316.34105584  .00002054  00000+0  16708-3 0  9995
2 57343  43.0015 178.5943 0001299 271.6016  88.4678 15.02538537 18502
STARLINK-6380           
1 57344U 23099S   23316.73104391  .00001412  00000+0  11955-3 0  9990
2 57344  43.0008 176.3598 0001358 269.6438  90.4248 15.02539189 19307
STARLINK-6373           
1 57345U 23099T   23316.60141861  .00001580  00000+0  13202-3 0  9993
2 57345  43.0015 177.1076 0001292 269.5662  90.5032 15.02540690 18547
STARLINK-6359           
1 57346U 23099U   23316.31330909 -.00000623  00000+0 -31034-4 0  9998
2 57346  43.0010 178.3854 0001171 273.4329  86.6379 15.02539504 18508
STARLINK-6378           
1 57347U 23099V   23316.32773831  .00000552  00000+0  55892-4 0  9992
2 57347  43.0010 178.4938 0001309 268.3736  91.6956 15.02539665 18506
STARLINK-6372           
1 57348U 23099W   23316.30997956  .00002440  00000+0  19560-3 0  9996
2 57348  43.0009 178.3599 0001384 271.9114  88.1570 15.02535977 18505
STARLINK-6376           
1 57349U 23099X   23316.77754303  .00001411  00000+0  11946-3 0  9992
2 57349  43.0013 175.8482 0001328 262.6160  97.4531 15.02541672 19319
STARLINK-6362           
1 57350U 23099Y   23316.31812061 -.00001742  00000+0 -11387-3 0  9998
2 57350  43.0021 166.2546 0001254 267.1701  92.8998 15.02540136 18649
STARLINK-6331           
1 57351U 23099Z   23316.30887282 -.00000649  00000+0 -33016-4 0  9994
2 57351  43.0020 178.3528 0001214 273.8199  86.2504 15.02533289 18500
STARLINK-6297           
1 57352U 23099AA  23316.31257350 -.00001790  00000+0 -11743-3 0  9993
2 57352  43.0022 166.2106 0000818 276.1824  83.8925 15.02539844 18649
STARLINK-6324           
1 57353U 23099AB  23316.30664797  .00000015  00000+0  16154-4 0  9999
2 57353  43.0015 178.3334 0001357 272.7958  87.2729 15.02542036 18500
STARLINK-6293           
1 57354U 23099AC  23316.76792669  .00003131  00000+0  24678-3 0  9991
2 57354  43.0023 163.6067 0001142 271.2420  88.8292 15.02525554 19453
STARLINK-6276           
1 57355U 23099AD  23316.31478946 -.00000014  00000+0  14057-4 0  9991
2 57355  43.0017 166.2289 0001208 273.1504  86.9200 15.02537956 18646
STARLINK-6355           
1 57356U 23099AE  23316.91667824 -.00021207  00000+0 -15593-2 0  9995
2 57356  43.0011 162.7858 0001238 277.6652 173.9729 15.02542097 19376
STARLINK-5600           
1 57357U 23099AF  23316.84105973  .00000897  00000+0  81470-4 0  9999
2 57357  43.0022 163.2956 0001063 266.0461  94.0260 15.02539323 19359
STARLINK-6299           
1 57358U 23099AG  23316.76126549  .00003021  00000+0  23859-3 0  9991
2 57358  43.0010 163.5555 0001322 270.2585  89.8106 15.02540813 19455
STARLINK-6347           
1 57359U 23099AH  23316.30813137 -.00001497  00000+0 -95771-4 0  9998
2 57359  43.0015 166.1773 0001063 268.4716  91.6005 15.02541953 18644
STARLINK-6348           
1 57360U 23099AJ  23316.75461115 -.00000261  00000+0 -42336-5 0  9992
2 57360  43.0021 163.5056 0001270 273.2200  86.8497 15.02534759 19457
STARLINK-6340           
1 57361U 23099AK  23316.09870712 -.00000584  00000+0 -28145-4 0  9996
2 57361  43.0016 167.1851 0000986 268.1010  91.9719 15.02543515 18611
STARLINK-6343           
1 57362U 23099AL  23316.02002168  .00000148  00000+0  26000-4 0  9994
2 57362  43.0020 167.4530 0001274 275.0106  85.0591 15.02537576 18609
STARLINK-6356           
1 57363U 23099AM  23316.55850348  .00002333  00000+0  18773-3 0  9999
2 57363  43.0011 164.6139 0001065 270.9658  89.1063 15.02540164 18682
STARLINK-6338           
1 57364U 23099AN  23316.28482185 -.00001380  00000+0 -87054-4 0  9992
2 57364  43.0026 165.9992 0001332 268.8447  91.2242 15.02540920 18648
STARLINK-5007           
1 57365U 23099AP  23316.27594275  .00001659  00000+0  13785-3 0  9992
2 57365  43.0009 165.9286 0001554 267.1967  92.8697 15.02537238 18640
